     2.10           NAVIGATION                              RINEX VERSION / TYPE
fic2rin                                 07/24/2008 01:50:31 PGM / RUN BY / DATE
                                                            END OF HEADER
18 08  7 23 10  0  0.0 -.153230968863D-03  .420641299570D-11  .000000000000D+00
     .910000000000D+02 -.402500000000D+02  .509199781643D-08 -.307695355096D+01
    -.211782753468D-05  .965161074419D-02  .636279582977D-05  .515370197678D+04
     .295200000000D+06 -.670552253723D-07 -.826954747699D-01 -.156462192535D-06
     .947187989405D+00  .250062500000D+03 -.249234042289D+01 -.830998900154D-08
    -.390730561211D-09  .100000000000D+01  .148900000000D+04  .000000000000D+00
     .240000000000D+01  .000000000000D+00 -.107102096081D-07  .910000000000D+02
     .288006000000D+06  .400000000000D+01
19 08  7 23 10  0  0.0  .338833779097D-04  .454747350886D-12  .000000000000D+00
     .340000000000D+02 -.593750000000D+00  .438339687179D-08  .139069701456D+01
     .409781932831D-07  .484786473680D-02  .109486281872D-04  .515371313095D+04
     .295200000000D+06  .106170773506D-06 -.214280866705D+01  .800937414169D-07
     .957312700602D+00  .166437500000D+03 -.561106803848D+00 -.787497088129D-08
     .164649715464D-09  .100000000000D+01  .148900000000D+04  .000000000000D+00
     .240000000000D+01  .000000000000D+00 -.144354999065D-07  .340000000000D+02
     .288006000000D+06  .400000000000D+01
20 08  7 23 10  0  0.0  .109300483018D-03 -.795807864051D-12  .000000000000D+00
     .360000000000D+02 -.299375000000D+02  .516164357460D-08 -.303016118286D+01
    -.152178108692D-05  .358467211481D-02  .575743615627D-05  .515380417061D+04
     .295200000000D+06  .160187482834D-06 -.136308998320D+00 -.745058059692D-07
     .946689412294D+00  .259843750000D+03  .138352795672D+01 -.844463746733D-08
    -.286440502825D-09  .100000000000D+01  .148900000000D+04  .000000000000D+00
     .240000000000D+01  .000000000000D+00 -.651925802231D-08  .360000000000D+02
     .288006000000D+06  .400000000000D+01
22 08  7 23 10  0  0.0  .211472157389D-03 -.113686837722D-12  .000000000000D+00
     .830000000000D+02 -.336875000000D+02  .518557314279D-08  .194350677173D+01
    -.176392495632D-05  .498030777089D-02  .607036054134D-05  .515366534424D+04
     .295200000000D+06  .111758708954D-07 -.763301192501D-01 -.100582838058D-06
     .944831531203D+00  .256281250000D+03 -.183131645174D+01 -.843677999718D-08
    -.337514058815D-09  .100000000000D+01  .148900000000D+04  .000000000000D+00
     .340000000000D+01  .000000000000D+00 -.181607902050D-07  .830000000000D+02
     .288006000000D+06  .400000000000D+01
23 08  7 23 10  0  0.0  .365665648133D-03  .181898940355D-11  .000000000000D+00
     .440000000000D+02  .118437500000D+02  .415267297550D-08  .703977392056D+00
     .379979610443D-06  .578247371595D-02  .958330929279D-05  .515371823120D+04
     .295200000000D+06  .521540641785D-07  .932593808927D+00 -.242143869400D-07
     .971346110933D+00  .197250000000D+03  .277702146207D+01 -.791747265166D-08
    -.133576992589D-09  .100000000000D+01  .148900000000D+04  .000000000000D+00
     .240000000000D+01  .000000000000D+00 -.200234353542D-07  .440000000000D+02
     .288006000000D+06  .400000000000D+01
24 08  7 23 10  0  0.0  .111581292003D-03  .284217094304D-11  .000000000000D+00
     .190000000000D+02  .663125000000D+02  .504592446872D-08  .304231716020D+01
     .344030559063D-05  .762006384321D-02  .558048486710D-05  .515366417313D+04
     .295200000000D+06  .186264514923D-08 -.111401947145D+01  .135973095894D-06
     .952188328249D+00  .263781250000D+03 -.729304788895D+00 -.831820362943D-08
     .359657838335D-09  .100000000000D+01  .148900000000D+04  .000000000000D+00
     .240000000000D+01  .000000000000D+00 -.139698386192D-08  .190000000000D+02
     .288006000000D+06  .400000000000D+01
25 08  7 23 10  0  0.0 -.199065078050D-03 -.127329258248D-10  .000000000000D+00
     .400000000000D+01  .377187500000D+02  .441161233279D-08 -.274328686521D+01
     .197067856789D-05  .116226973478D-01  .588595867157D-05  .515369757843D+04
     .295200000000D+06  .670552253723D-07  .188136847928D+01  .894069671631D-07
     .965362495109D+00  .270500000000D+03 -.124711386675D+01 -.795104547867D-08
     .169649923743D-09  .100000000000D+01  .148900000000D+04  .000000000000D+00
     .240000000000D+01  .000000000000D+00 -.745058059692D-08  .400000000000D+01
     .288006000000D+06  .400000000000D+01
26 08  7 23 10  0  0.0  .297399237752D-03  .659383658785D-11  .000000000000D+00
     .270000000000D+02  .207500000000D+02  .379801534544D-08  .118863609524D+00
     .128336250782D-05  .191431588028D-01  .109355896711D-04  .515362379456D+04
     .295200000000D+06 -.856816768646D-07  .975860734642D+00  .236555933952D-06
     .993423316343D+00  .185781250000D+03  .948610472428D+00 -.798568977889D-08
    -.109647424398D-09  .100000000000D+01  .148900000000D+04  .000000000000D+00
     .240000000000D+01  .000000000000D+00 -.605359673500D-08  .270000000000D+02
     .288006000000D+06  .400000000000D+01
27 08  7 23 10  0  0.0  .204776879400D-03  .261479726760D-11  .000000000000D+00
     .870000000000D+02  .417812500000D+02  .433910931275D-08 -.274577344997D+01
     .215508043766D-05  .210998583352D-01  .519305467606D-05  .515374839973D+04
     .295200000000D+06  .240281224251D-06  .191635265688D+01  .540167093277D-07
     .969968145969D+00  .282406250000D+03 -.169726373392D+01 -.777710966212D-08
     .257867884090D-09  .100000000000D+01  .148900000000D+04  .000000000000D+00
     .240000000000D+01  .000000000000D+00 -.419095158577D-08  .870000000000D+02
     .288006000000D+06  .400000000000D+01
28 08  7 23 10  0  0.0 -.212802551687D-04 -.341060513165D-12  .000000000000D+00
     .810000000000D+02 -.773437500000D+02  .436018161907D-08  .227794523016D+01
    -.415369868279D-05  .138587481342D-01  .673346221447D-05  .515371616364D+04
     .295200000000D+06  .167638063431D-07  .305122676725D+01 -.271946191788D-06
     .964522360274D+00  .250156250000D+03 -.209430330087D+01 -.793604485384D-08
    -.248581783000D-09  .100000000000D+01  .148900000000D+04  .000000000000D+00
     .240000000000D+01  .000000000000D+00 -.102445483208D-07  .810000000000D+02
     .288006000000D+06  .400000000000D+01
29 08  7 23 10  0  0.0 -.411481596529D-04  .568434188608D-12  .000000000000D+00
     .750000000000D+02  .600000000000D+01  .426267755763D-08 -.178841596067D+01
     .458210706711D-06  .369216769468D-02  .124443322420D-04  .515363529015D+04
     .295200000000D+06  .260770320892D-07 -.219157531771D+01  .745058059692D-07
     .959698203579D+00  .136093750000D+03 -.139145880135D+01 -.787532803902D-08
     .177150236161D-09  .100000000000D+01  .148900000000D+04  .000000000000D+00
     .340000000000D+01  .000000000000D+00 -.884756445885D-08  .750000000000D+02
     .288006000000D+06  .400000000000D+01
30 08  7 23 10  0  0.0  .873552635312D-04  .193267624127D-11  .000000000000D+00
     .640000000000D+02 -.788437500000D+02  .477555606394D-08  .274656307610D+01
    -.397302210331D-05  .108595263446D-01  .585056841373D-05  .515370682335D+04
     .295200000000D+06  .111758708954D-06  .298347021399D+01  .353902578354D-07
     .949539065531D+00  .258218750000D+03  .138238919641D+01 -.812140971788D-08
    -.265011038773D-09  .100000000000D+01  .148900000000D+04  .000000000000D+00
     .240000000000D+01  .000000000000D+00 -.838190317154D-08  .640000000000D+02
     .288006000000D+06  .400000000000D+01
31 08  7 23 10  0  0.0 -.249221920967D-04 -.113686837722D-12  .000000000000D+00
     .650000000000D+02  .252812500000D+02  .461304929488D-08 -.112837402448D+01
     .137090682983D-05  .663664296735D-02  .558234751225D-05  .515378154564D+04
     .295200000000D+06 -.100582838058D-06  .197292605869D+01 -.130385160446D-07
     .968412980665D+00  .277750000000D+03 -.121931324012D+01 -.833963309348D-08
     .225723688012D-09  .100000000000D+01  .148900000000D+04  .000000000000D+00
     .240000000000D+01  .000000000000D+00 -.130385160446D-07  .650000000000D+02
     .288006000000D+06  .400000000000D+01
32 08  7 23 10  0  0.0  .309027265757D-03  .261479726760D-11  .000000000000D+00
     .210000000000D+02 -.315000000000D+02  .474626912973D-08 -.413202396453D-01
    -.160560011864D-05  .139128144365D-01  .662729144096D-05  .515381360054D+04
     .295200000000D+06 -.119209289551D-06 -.333174633261D-01 -.115483999252D-06
     .968653597042D+00  .260468750000D+03 -.130607177968D+01 -.846142388084D-08
    -.288226291496D-09  .100000000000D+01  .148900000000D+04  .000000000000D+00
     .240000000000D+01  .000000000000D+00 -.279396772385D-08  .210000000000D+02
     .288006000000D+06  .400000000000D+01
21 08  7 23 11  0  0.0  .570546835661D-04 -.136424205266D-11  .000000000000D+00
     .106000000000D+03  .618125000000D+02  .536165190575D-08 -.137134849954D+01
     .296533107758D-05  .141949671088D-01  .480748713017D-05  .515369833374D+04
     .298800000000D+06  .318512320518D-06 -.114097647857D+01 -.307336449623D-06
     .935527044525D+00  .263031250000D+03 -.269617883010D+01 -.853964142463D-08
     .471448209139D-09  .100000000000D+01  .148900000000D+04  .000000000000D+00
     .485000000000D+01  .000000000000D+00 -.116415321827D-07  .106000000000D+03
     .288006000000D+06  .600000000000D+01
 5 08  7 23  9 59 44.0 -.337047968060D-03 -.328554961015D-10  .000000000000D+00
     .500000000000D+01 -.750312500000D+02  .493734851753D-08 -.299214098357D+01
    -.374950468540D-05  .908505707048D-02  .559166073799D-05  .515371908569D+04
     .295184000000D+06  .316649675369D-07  .293152982253D+01  .372529029846D-08
     .943452899149D+00  .261375000000D+03  .124732255640D+01 -.823498587736D-08
    -.238224208709D-09  .100000000000D+01  .148900000000D+04  .000000000000D+00
     .485000000000D+01  .000000000000D+00 -.419095158577D-08  .500000000000D+01
     .289476000000D+06  .400000000000D+01
